{
  "type": "FeatureCollection",
  "features": [
    {
      "type": "Feature",
      "properties": {
        "norad_id": 43647,
        "name": "BEIDOU-3 M16 (C35)",
        "group": "gnss",
        "lat": 38.92035193556936,
        "lon": 91.07416222275992,
        "alt_km": 21530.038614827787,
        "timestamp": "2025-12-10T04:57:29.861536+00:00",
        "meta_object_name": "BEIDOU-3 M16 (C35)",
        "meta_object_id": "2018-078A",
        "meta_epoch": "2025-12-08T22:33:41.935680",
        "meta_mean_motion": 1.86232209,
        "meta_eccentricity": 0.0007116,
        "meta_inclination": 54.2656,
        "meta_ra_of_asc_node": 306.6541,
        "meta_arg_of_pericenter": 19.0293,
        "meta_mean_anomaly": 340.9862,
        "meta_ephemeris_type": 0,
        "meta_classification_type": "U",
        "meta_norad_cat_id": 43647,
        "meta_element_set_no": 999,
        "meta_rev_at_epoch": 4861,
        "meta_bstar": 0,
        "meta_mean_motion_dot": -7.5e-07,
        "meta_mean_motion_ddot": 0,
        "tle_line1": "1 43647U 18078A   25342.94006870 -.00000075  00000+0  00000+0 0  9999",
        "tle_line2": "2 43647  54.2656 306.6541 0007116  19.0293 340.9862  1.86232209 48612"
      },
      "geometry": {
        "type": "Point",
        "coordinates": [
          91.07416222275992,
          38.92035193556936
        ]
      }
    },
    {
      "type": "Feature",
      "properties": {
        "norad_id": 43648,
        "name": "BEIDOU-3 M15 (C34)",
        "group": "gnss",
        "lat": 33.28963852420189,
        "lon": -25.212644643544383,
        "alt_km": 21514.788440518718,
        "timestamp": "2025-12-10T04:57:29.861548+00:00",
        "meta_object_name": "BEIDOU-3 M15 (C34)",
        "meta_object_id": "2018-078B",
        "meta_epoch": "2025-12-09T01:39:46.541952",
        "meta_mean_motion": 1.8623188,
        "meta_eccentricity": 0.00035968,
        "meta_inclination": 54.2613,
        "meta_ra_of_asc_node": 306.6503,
        "meta_arg_of_pericenter": 17.7285,
        "meta_mean_anomaly": 342.2733,
        "meta_ephemeris_type": 0,
        "meta_classification_type": "U",
        "meta_norad_cat_id": 43648,
        "meta_element_set_no": 999,
        "meta_rev_at_epoch": 4863,
        "meta_bstar": 0,
        "meta_mean_motion_dot": -7.5e-07,
        "meta_mean_motion_ddot": 0,
        "tle_line1": "1 43648U 18078B   25343.06928868 -.00000075  00000+0  00000+0 0  9994",
        "tle_line2": "2 43648  54.2613 306.6503 0003596  17.7285 342.2733  1.86231880 48636"
      },
      "geometry": {
        "type": "Point",
        "coordinates": [
          -25.212644643544383,
          33.28963852420189
        ]
      }
    },
    {
      "type": "Feature",
      "properties": {
        "norad_id": 43683,
        "name": "BEIDOU-3 G1 (C59)",
        "group": "gnss",
        "lat": -0.49644978028990194,
        "lon": -66.36027295601747,
        "alt_km": 35790.84104138477,
        "timestamp": "2025-12-10T04:57:29.861559+00:00",
        "meta_object_name": "BEIDOU-3 G1 (C59)",
        "meta_object_id": "2018-085A",
        "meta_epoch": "2025-12-09T19:22:30.059904",
        "meta_mean_motion": 1.00271807,
        "meta_eccentricity": 0.0001741,
        "meta_inclination": 2.6004,
        "meta_ra_of_asc_node": 103.0215,
        "meta_arg_of_pericenter": 61.1365,
        "meta_mean_anomaly": 345.3334,
        "meta_ephemeris_type": 0,
        "meta_classification_type": "U",
        "meta_norad_cat_id": 43683,
        "meta_element_set_no": 999,
        "meta_rev_at_epoch": 2616,
        "meta_bstar": 0,
        "meta_mean_motion_dot": -2.74e-06,
        "meta_mean_motion_ddot": 0,
        "tle_line1": "1 43683U 18085A   25343.80729236 -.00000274  00000+0  00000+0 0  9992",
        "tle_line2": "2 43683   2.6004 103.0215 0001741  61.1365 345.3334  1.00271807 26161"
      },
      "geometry": {
        "type": "Point",
        "coordinates": [
          -66.36027295601747,
          -0.49644978028990194
        ]
      }
    },
    {
      "type": "Feature",
      "properties": {
        "norad_id": 43687,
        "name": "COSMOS 2529 (757)",
        "group": "gnss",
        "lat": 60.560736802988146,
        "lon": -39.629517940529546,
        "alt_km": 19139.28203673074,
        "timestamp": "2025-12-10T04:57:29.861570+00:00",
        "meta_object_name": "COSMOS 2529 (757)",
        "meta_object_id": "2018-086A",
        "meta_epoch": "2025-12-09T03:09:05.938272",
        "meta_mean_motion": 2.13101866,
        "meta_eccentricity": 0.00072944,
        "meta_inclination": 64.2918,
        "meta_ra_of_asc_node": 199.0104,
        "meta_arg_of_pericenter": 254.1951,
        "meta_mean_anomaly": 105.7985,
        "meta_ephemeris_type": 0,
        "meta_classification_type": "U",
        "meta_norad_cat_id": 43687,
        "meta_element_set_no": 999,
        "meta_rev_at_epoch": 5523,
        "meta_bstar": 0,
        "meta_mean_motion_dot": 4.4e-07,
        "meta_mean_motion_ddot": 0,
        "tle_line1": "1 43687U 18086A   25343.13131873  .00000044  00000+0  00000+0 0  9991",
        "tle_line2": "2 43687  64.2918 199.0104 0007294 254.1951 105.7985  2.13101866 55231"
      },
      "geometry": {
        "type": "Point",
        "coordinates": [
          -39.629517940529546,
          60.560736802988146
        ]
      }
    },
    {
      "type": "Feature",
      "properties": {
        "norad_id": 43706,
        "name": "BEIDOU-3 M17 (C36)",
        "group": "gnss",
        "lat": -46.66437110352711,
        "lon": 138.73504922800876,
        "alt_km": 21516.39535118723,
        "timestamp": "2025-12-10T04:57:29.861581+00:00",
        "meta_object_name": "BEIDOU-3 M17 (C36)",
        "meta_object_id": "2018-093A",
        "meta_epoch": "2025-12-07T14:48:21.849120",
        "meta_mean_motion": 1.86228285,
        "meta_eccentricity": 0.0006281,
        "meta_inclination": 54.1726,
        "meta_ra_of_asc_node": 188.7957,
        "meta_arg_of_pericenter": 306.8876,
        "meta_mean_anomaly": 53.1241,
        "meta_ephemeris_type": 0,
        "meta_classification_type": "U",
        "meta_norad_cat_id": 43706,
        "meta_element_set_no": 999,
        "meta_rev_at_epoch": 4797,
        "meta_bstar": 0,
        "meta_mean_motion_dot": 5.7e-07,
        "meta_mean_motion_ddot": 0,
        "tle_line1": "1 43706U 18093A   25341.61691955  .00000057  00000+0  00000+0 0  9998",
        "tle_line2": "2 43706  54.1726 188.7957 0006281 306.8876  53.1241  1.86228285 47972"
      },
      "geometry": {
        "type": "Point",
        "coordinates": [
          138.73504922800876,
          -46.66437110352711
        ]
      }
    },
    {
      "type": "Feature",
      "properties": {
        "norad_id": 43707,
        "name": "BEIDOU-3 M18 (C37)",
        "group": "gnss",
        "lat": 23.248999656757448,
        "lon": -153.20946498701332,
        "alt_km": 21511.715054333457,
        "timestamp": "2025-12-10T04:57:29.861596+00:00",
        "meta_object_name": "BEIDOU-3 M18 (C37)",
        "meta_object_id": "2018-093B",
        "meta_epoch": "2025-12-09T02:08:32.306784",
        "meta_mean_motion": 1.86226655,
        "meta_eccentricity": 0.00062934,
        "meta_inclination": 54.1729,
        "meta_ra_of_asc_node": 188.7377,
        "meta_arg_of_pericenter": 351.6926,
        "meta_mean_anomaly": 8.358,
        "meta_ephemeris_type": 0,
        "meta_classification_type": "U",
        "meta_norad_cat_id": 43707,
        "meta_element_set_no": 999,
        "meta_rev_at_epoch": 4799,
        "meta_bstar": 0,
        "meta_mean_motion_dot": 4.9e-07,
        "meta_mean_motion_ddot": 0,
        "tle_line1": "1 43707U 18093B   25343.08926281  .00000049  00000+0  00000+0 0  9996",
        "tle_line2": "2 43707  54.1729 188.7377 0006293 351.6926   8.3580  1.86226655 47998"
      },
      "geometry": {
        "type": "Point",
        "coordinates": [
          -153.20946498701332,
          23.248999656757448
        ]
      }
    },
    {
      "type": "Feature",
      "properties": {
        "norad_id": 43873,
        "name": "GPS BIII-1  (PRN 04)",
        "group": "gnss",
        "lat": 48.860257730224575,
        "lon": -132.03096591751188,
        "alt_km": 20160.97979141485,
        "timestamp": "2025-12-10T04:57:29.861610+00:00",
        "meta_object_name": "GPS BIII-1  (PRN 04)",
        "meta_object_id": "2018-109A",
        "meta_epoch": "2025-12-08T13:41:32.071776",
        "meta_mean_motion": 2.00553358,
        "meta_eccentricity": 0.003721,
        "meta_inclination": 55.5654,
        "meta_ra_of_asc_node": 99.7112,
        "meta_arg_of_pericenter": 194.8122,
        "meta_mean_anomaly": 178.3596,
        "meta_ephemeris_type": 0,
        "meta_classification_type": "U",
        "meta_norad_cat_id": 43873,
        "meta_element_set_no": 999,
        "meta_rev_at_epoch": 5125,
        "meta_bstar": 0,
        "meta_mean_motion_dot": 6e-08,
        "meta_mean_motion_ddot": 0,
        "tle_line1": "1 43873U 18109A   25342.57051009  .00000006  00000+0  00000+0 0  9991",
        "tle_line2": "2 43873  55.5654  99.7112 0037210 194.8122 178.3596  2.00553358 51259"
      },
      "geometry": {
        "type": "Point",
        "coordinates": [
          -132.03096591751188,
          48.860257730224575
        ]
      }
    }
  ]
}